{
    "type": "FeatureCollection",
    "name": "tacna_region",
    "crs": {
        "type": "name",
        "properties": {
            "name": "urn:ogc:def:crs:OGC:1.3:CRS84"
        }
    },
    "features": [
        {
            "type": "Feature",
            "properties": {
                "name": "Tacna",
                "level": "departamento",
                "country": "Perú",
                "source": "geoBoundaries gbOpen PER ADM1",
                "source_note": "Polígono ADM1 de Perú filtrado por shapeName=Tacna desde geoBoundaries; boundarySource declarado por la API: Wikimedia Commons; licencia declarada: Public Domain.",
                "source_url": "https://www.geoboundaries.org/api/current/gbOpen/PER/ADM1/",
                "source_download": "https://github.com/wmgeolab/geoBoundaries/raw/90a1d52/releaseData/gbOpen/PER/ADM1/geoBoundaries-PER-ADM1.geojson",
                "shapeISO": "PE-TAC",
                "shapeID": "1875124B58976419670313",
                "shapeGroup": "PER",
                "shapeType": "ADM1"
            },
            "geometry": {
                "type": "Polygon",
                "coordinates": [
                    [
                        [
                            -70.11717985015287,
                            -16.942294963094753
                        ],
                        [
                            -70.1422114369999,
                            -16.944570561999967
                        ],
                        [
                            -70.18119985199996,
                            -16.95175263799996
                        ],
                        [
                            -70.19966804899991,
                            -16.96509077999997
                        ],
                        [
                            -70.22326629999998,
                            -16.975350889999902
                        ],
                        [
                            -70.23557843099996,
                            -16.955856681999876
                        ],
                        [
                            -70.23968247499994,
                            -16.91892028799998
                        ],
                        [
                            -70.23044837699996,
                            -16.888139959999933
                        ],
                        [
                            -70.20479810299992,
                            -16.86761974199993
                        ],
                        [
                            -70.18017384099988,
                            -16.854281598999876
                        ],
                        [
                            -70.18222586299987,
                            -16.83581340299986
                        ],
                        [
                            -70.20274608199998,
                            -16.829657336999958
                        ],
                        [
                            -70.23250039899989,
                            -16.815293183999927
                        ],
                        [
                            -70.25917668299996,
                            -16.79990301999993
                        ],
                        [
                            -70.28035026499998,
                            -16.789570679999883
                        ],
                        [
                            -70.32363643499997,
                            -16.806801096999948
                        ],
                        [
                            -70.36902387599997,
                            -16.823191005999888
                        ],
                        [
                            -70.40390496399982,
                            -16.858912601999975
                        ],
                        [
                            -70.43416325799996,
                            -16.898416485999974
                        ],
                        [
                            -70.44088732299997,
                            -16.92068995199992
                        ],
                        [
                            -70.43130027699988,
                            -16.959878644999947
                        ],
                        [
                            -70.42998698299994,
                            -16.981547995999904
                        ],
                        [
                            -70.4372100999999,
                            -17.02882657899994
                        ],
                        [
                            -70.4372100999999,
                            -17.06691210499997
                        ],
                        [
                            -70.45493956899986,
                            -17.10237104299995
                        ],
                        [
                            -70.47398233199993,
                            -17.13126351099993
                        ],
                        [
                            -70.49433838899995,
                            -17.161469272999966
                        ],
                        [
                            -70.51797768099993,
                            -17.18576521199992
                        ],
                        [
                            -70.54555685499992,
                            -17.210061150999877
                        ],
                        [
                            -70.5639429709999,
                            -17.211374444999933
                        ],
                        [
                            -70.59480537899998,
                            -17.2185975619999
                        ],
                        [
                            -70.62304119999993,
                            -17.22582067899998
                        ],
                        [
                            -70.65111285899985,
                            -17.240061709999964
                        ],
                        [
                            -70.67471111099997,
                            -17.269816026999877
                        ],
                        [
                            -70.69830936199992,
                            -17.303674387999934
                        ],
                        [
                            -70.71780356999994,
                            -17.338558759999955
                        ],
                        [
                            -70.72703766799998,
                            -17.388833295999916
                        ],
                        [
                            -70.73011570099993,
                            -17.431925754999895
                        ],
                        [
                            -70.76089602899987,
                            -17.46988815899988
                        ],
                        [
                            -70.78552029199989,
                            -17.493486410999935
                        ],
                        [
                            -70.82245668499996,
                            -17.530422803999954
                        ],
                        [
                            -70.84502892599994,
                            -17.555047066999975
                        ],
                        [
                            -70.86760116599993,
                            -17.59916553699992
                        ],
                        [
                            -70.87580925399988,
                            -17.63404990899994
                        ],
                        [
                            -70.89119941799999,
                            -17.686376465999956
                        ],
                        [
                            -70.91377165799986,
                            -17.705870673999982
                        ],
                        [
                            -70.95686411699984,
                            -17.70792269599997
                        ],
                        [
                            -71.00919067499984,
                            -17.71715679399989
                        ],
                        [
                            -71.03381493699987,
                            -17.735624990999952
                        ],
                        [
                            -71.07485537499997,
                            -17.751015154999948
                        ],
                        [
                            -71.10255766999995,
                            -17.77871744999993
                        ],
                        [
                            -71.1210258669999,
                            -17.803341712999952
                        ],
                        [
                            -71.14405904879618,
                            -17.829445985153598
                        ],
                        [
                            -71.14257209638367,
                            -17.83207001882272
                        ],
                        [
                            -71.0656212763945,
                            -17.877214499882882
                        ],
                        [
                            -71.03381493746554,
                            -17.887474609214905
                        ],
                        [
                            -70.99174848920484,
                            -17.906968816945437
                        ],
                        [
                            -70.94968204094408,
                            -17.9213329700101
                        ],
                        [
                            -70.9240317676144,
                            -17.943905210540265
                        ],
                        [
                            -70.90966761454962,
                            -17.95211329800577
                        ],
                        [
                            -70.8706791990885,
                            -18.000335811865682
                        ],
                        [
                            -70.84400291482564,
                            -18.037272205460397
                        ],
                        [
                            -70.80296247749811,
                            -18.05984444599062
                        ],
                        [
                            -70.77218214950238,
                            -18.08344269745396
                        ],
                        [
                            -70.7167775591102,
                            -18.128587178514294
                        ],
                        [
                            -70.69420531858009,
                            -18.15013340811123
                        ],
                        [
                            -70.6408527500542,
                            -18.193225867305216
                        ],
                        [
                            -70.53825165673538,
                            -18.26094258889566
                        ],
                        [
                            -70.48079504447685,
                            -18.29172291689133
                        ],
                        [
                            -70.43667657434969,
                            -18.320451223020598
                        ],
                        [
                            -70.38845406048983,
                            -18.35533559474902
                        ],
                        [
                            -70.3556217106277,
                            -18.359439638481717
                        ],
                        [
                            -70.32073733889928,
                            -18.34815351821669
                        ],
                        [
                            -70.28893099997043,
                            -18.335841387018377
                        ],
                        [
                            -70.22224028931316,
                            -18.332763354218798
                        ],
                        [
                            -70.0980929663973,
                            -18.320451223020598
                        ],
                        [
                            -70.0498704525375,
                            -18.297878982490374
                        ],
                        [
                            -69.98112772001383,
                            -18.292748927824505
                        ],
                        [
                            -69.93700924988667,
                            -18.275306741960264
                        ],
                        [
                            -69.87955263762814,
                            -18.221954173434483
                        ],
                        [
                            -69.84569427683289,
                            -18.20143395477072
                        ],
                        [
                            -69.82107001443637,
                            -18.17270564864134
                        ],
                        [
                            -69.80260181763884,
                            -18.147055375311652
                        ],
                        [
                            -69.78413362084154,
                            -18.11935308011556
                        ],
                        [
                            -69.7666914349773,
                            -18.077286631854804
                        ],
                        [
                            -69.74822323817995,
                            -18.0393242273268
                        ],
                        [
                            -69.74924924911312,
                            -17.990075702533773
                        ],
                        [
                            -69.74924924911312,
                            -17.94903526520619
                        ],
                        [
                            -69.77387351150963,
                            -17.889526631081253
                        ],
                        [
                            -69.78002957710879,
                            -17.86285034681839
                        ],
                        [
                            -69.78618564270778,
                            -17.814627832958365
                        ],
                        [
                            -69.7943937301734,
                            -17.785899526829155
                        ],
                        [
                            -69.80875788323806,
                            -17.771535373764493
                        ],
                        [
                            -69.81799198163674,
                            -17.73459898016978
                        ],
                        [
                            -69.81491394883722,
                            -17.708948706839976
                        ],
                        [
                            -69.78515963177466,
                            -17.67919438977742
                        ],
                        [
                            -69.75027526004624,
                            -17.666882258579278
                        ],
                        [
                            -69.71949493205057,
                            -17.668934280445683
                        ],
                        [
                            -69.6907666259213,
                            -17.669960291378857
                        ],
                        [
                            -69.61968458847002,
                            -17.65723775580733
                        ],
                        [
                            -69.55073665375971,
                            -17.614555700986614
                        ],
                        [
                            -69.51265112791975,
                            -17.58237999812178
                        ],
                        [
                            -69.49032513001356,
                            -17.563337235201857
                        ],
                        [
                            -69.4732523080853,
                            -17.533788120325994
                        ],
                        [
                            -69.46734248511012,
                            -17.508835534430887
                        ],
                        [
                            -69.46401820968657,
                            -17.451419962609577
                        ],
                        [
                            -69.4732523080853,
                            -17.385755262885482
                        ],
                        [
                            -69.49787657048182,
                            -17.35292291302352
                        ],
                        [
                            -69.52557886567797,
                            -17.334454716226105
                        ],
                        [
                            -69.56046323740634,
                            -17.314960508495517
                        ],
                        [
                            -69.57893143420375,
                            -17.303674388230434
                        ],
                        [
                            -69.57987444052179,
                            -17.30313034612385
                        ],
                        [
                            -69.61180482499992,
                            -17.30790155299985
                        ],
                        [
                            -69.63544411599997,
                            -17.296081906999973
                        ],
                        [
                            -69.6656498779999,
                            -17.29936514199983
                        ],
                        [
                            -69.69585563999988,
                            -17.301991729999884
                        ],
                        [
                            -69.71883828499989,
                            -17.31446802299996
                        ],
                        [
                            -69.72868798999997,
                            -17.29936514199983
                        ],
                        [
                            -69.75035734099993,
                            -17.281635672999982
                        ],
                        [
                            -69.78909951399993,
                            -17.26193626299994
                        ],
                        [
                            -69.83900468599995,
                            -17.252086558999963
                        ],
                        [
                            -69.88365668099993,
                            -17.240923559999942
                        ],
                        [
                            -69.93159191199993,
                            -17.21334438599996
                        ],
                        [
                            -69.95851443899988,
                            -17.187078505999978
                        ],
                        [
                            -69.9814970839999,
                            -17.166065801999878
                        ],
                        [
                            -70.00841961099991,
                            -17.14505309799989
                        ],
                        [
                            -70.02680572699984,
                            -17.112220747999913
                        ],
                        [
                            -70.03337219699995,
                            -17.067568751999943
                        ],
                        [
                            -70.04847507799997,
                            -17.0439294599999
                        ],
                        [
                            -70.08459066299991,
                            -17.024886696999943
                        ],
                        [
                            -70.10429007199997,
                            -16.98483123099993
                        ],
                        [
                            -70.11717985015287,
                            -16.942294963094753
                        ]
                    ]
                ]
            }
        }
    ]
}
