{
  "type": "FeatureCollection",
  "features": [
    {
      "type": "Feature",
      "properties": {
        "id": "tramo-1",
        "nombre": "Avenida San Martín",
        "tipo": "Provincial",
        "estado": "En ejecución",
        "color": "#801039"
      },
      "geometry": {
        "type": "LineString",
        "coordinates": [
          [-70.2505, -18.0135], [-70.2548, -18.0156], [-70.2580, -18.0175]
        ]
      }
    },
    {
      "type": "Feature",
      "properties": {
        "id": "tramo-2",
        "nombre": "Avenida Bolognesi",
        "tipo": "Local",
        "estado": "Entregado",
        "color": "#ffc300"
      },
      "geometry": {
        "type": "LineString",
        "coordinates": [
          [-70.2480, -18.0160], [-70.2520, -18.0185], [-70.2555, -18.0205]
        ]
      }
    },
    {
      "type": "Feature",
      "properties": {
        "id": "tramo-3",
        "nombre": "Vía Regional Jorge Basadre",
        "tipo": "Regional",
        "estado": "En estudios",
        "color": "#1a73e8"
      },
      "geometry": {
        "type": "LineString",
        "coordinates": [
          [-70.2450, -18.0100], [-70.2400, -18.0050], [-70.2350, -18.0000]
        ]
      }
    }
  ]
}